TEVEL2-3                
1 63218U 25052J   26068.64540225  .00020365  00000+0  69446-3 0  9991
2 63218  97.3994 324.7775 0004761 105.7353 254.4413 15.30377031 54855
STARLINK-33737          
1 63456U 25069Z   26068.47815767  .00022307  00000+0  76331-3 0  9999
2 63456  53.1584 143.3420 0000960  92.8182 267.2928 15.30187680 53265
